GLOBALSTAR M001         
1 25162U 98008A   25354.84998223 -.00000088  00000+0  62984-4 0  9994
2 25162  52.0008 149.9198 0000346 323.7116 203.8298 12.38224077266833
GLOBALSTAR M004         
1 25163U 98008B   25354.84876311 -.00000093  00000+0  60383-4 0  9995
2 25163  51.9985 204.6867 0003250   4.6481   7.9782 12.63411092285289
GLOBALSTAR M002         
1 25164U 98008C   25354.65127994 -.00000114  00000+0 -74674-3 0  9993
2 25164  51.9991 132.6733 0002563 118.5577 241.5501 11.61514605205734
GLOBALSTAR M003         
1 25165U 98008D   25354.76569453 -.00000203  00000+0 -12149-2 0  9993
2 25165  51.9924  11.7538 0007845 309.8545 221.2399 12.12041059255841
GLOBALSTAR M014         
1 25306U 98023A   25354.94344178 -.00000087  00000+0 -17108-3 0  9993
2 25306  51.9859  51.2377 0000514 359.2444 171.6596 11.65483542212943
GLOBALSTAR M006         
1 25307U 98023B   25354.62314684 -.00000092  00000+0 -34059-3 0  9998
2 25307  51.9934 111.4889 0004006  94.6159 279.2540 11.58178597238437
GLOBALSTAR M015         
1 25308U 98023C   25354.92561970 -.00000064  00000+0  22233-3 0  9993
2 25308  51.9795 217.7690 0013636  50.7416 322.0876 11.48862765215543
GLOBALSTAR M008         
1 25309U 98023D   25354.80966737 -.00000064  00000+0  25567-3 0  9994
2 25309  51.9993  16.9833 0002680 203.5525 326.9674 12.36077206260925
